INTELSAT 902 (IS-902)   
1 26900U 01039A   26183.07360656 -.00000276  00000+0  00000+0 0  9997
2 26900   6.1537  71.6012 0004298  27.5125 157.3906  1.00272101 90849
INTELSAT 904 (IS-904)   
1 27380U 02007A   26183.19236691 -.00000219  00000+0  00000+0 0  9997
2 27380   6.9551  69.0052 0006292  15.9453 233.0588  1.00271635 51916
DIRECTV 5 (TEMPO 1)     
1 27426U 02023A   26183.20432229 -.00000050  00000+0  00000+0 0  9996
2 27426   4.9139  75.1272 0003534  34.7507 133.8193  1.00271742 88271
INTELSAT 905 (IS-905)   
1 27438U 02027A   26183.26768753  .00000100  00000+0  00000+0 0  9998
2 27438   6.7890  69.6192 0004019  32.4794 137.3739  1.00272394 51515
GALAXY 3C (G-3C)        
1 27445U 02030A   26183.20735564 -.00000144  00000+0  00000+0 0  9997
2 27445   3.7694  77.7862 0001920  29.0304 153.2561  1.00272119 46646
INTELSAT 906 (IS-906)   
1 27513U 02041A   26183.23885530  .00000020  00000+0  00000+0 0  9999
2 27513   5.8398  72.7358 0004115  10.0767 347.5985  1.00270412 87178
GALAXY 13 (HORIZONS-1)  
1 27954U 03044A   26183.28539987  .00000142  00000+0  00000+0 0  9994
2 27954   1.4575  83.6709 0001694  13.5056 135.8652  1.00272142 46722
INTELSAT 10-02          
1 28358U 04022A   26183.08334034 -.00000001  00000+0  00000+0 0  9999
2 28358   0.0388 265.6144 0000321 255.3379 148.1780  1.00271302 80705
DIRECTV 8               
1 28659U 05019A   26183.16294837  .00000000  00000+0  00000+0 0  9993
2 28659   0.0194  26.1712 0003333  87.3040 106.3508  1.00270494 77227
GALAXY 28 (G-28)        
1 28702U 05022A   26183.22074189 -.00000192  00000+0  00000+0 0  9992
2 28702   3.3353  78.7558 0002536  18.2071 235.6688  1.00270650 52122
GALAXY 16 (G-16)        
1 29236U 06023A   26183.16850328 -.00000116  00000+0  00000+0 0  9993
2 29236   0.0153  75.4493 0002764  21.5664 144.8602  1.00271817 73123
DIRECTV 9S              
1 29494U 06043A   26183.16850328 -.00000104  00000+0  00000+0 0  9998
2 29494   2.4573  80.7307 0005395  23.2512 135.6940  1.00271914 51530
GALAXY 17 (G-17)        
1 31307U 07016B   26183.06671919 -.00000197  00000+0  00000+0 0  9993
2 31307   3.0073  79.7208 0004027  20.6939 118.7054  1.00271306 69959
INTELSAT 11 (IS-11)     
1 32253U 07044B   26183.16667838  .00000094  00000+0  00000+0 0  9996
2 32253   3.6021  78.4952 0003446  88.5032 233.1164  0.99047968 68597
HORIZONS-2              
1 32388U 07063B   26183.28109468 -.00000244  00000+0  00000+0 0  9997
2 32388   2.6388  80.4497 0004058  12.5773 214.6607  1.00269369 67967
DIRECTV 11              
1 32729U 08013A   26183.16850328 -.00000115  00000+0  00000+0 0  9994
2 32729   0.0408 199.1940 0000261 270.8549 131.6479  1.00273237 45740
GALAXY 18 (G-18)        
1 32951U 08024A   26183.16294837  .00000036  00000+0  00000+0 0  9991
2 32951   0.0162  46.1682 0003186  60.2494 109.4478  1.00272044 46004
GALAXY 19 (G-19)        
1 33376U 08045A   26183.20692230 -.00000129  00000+0  00000+0 0  9994
2 33376   0.0509 250.3976 0002937 225.8204 141.5200  1.00271595 65053
FM-5                    
1 35493U 09034A   26182.99517954 -.00000189  00000+0  00000+0 0  9995
2 35493   0.0325 279.2453 0000821  69.5542 203.3357  1.00269985 46799
INTELSAT 14 (IS-14)     
1 36097U 09064A   26183.21718853 -.00000263  00000+0  00000+0 0  9999
2 36097   0.0232 295.0890 0002729 169.1235 209.2257  1.00269734 60751
INTELSAT 15 (IS-15)     
1 36106U 09067A   26183.10041375 -.00000175  00000+0  00000+0 0  9991
2 36106   0.0155 340.3028 0002525 120.2608 300.8727  1.00273013 41371
DIRECTV 12              
1 36131U 09075A   26183.16850328 -.00000093  00000+0  00000+0 0  9999
2 36131   0.0104 130.9176 0000328 357.6700 109.5616  1.00271972 46703
INTELSAT 16 (IS-16)     
1 36397U 10006A   26183.21103517 -.00000234  00000+0  00000+0 0  9993
2 36397   0.0068  36.4040 0002472  80.5809 163.0428  1.00272733 59807
XM-5                    
1 37185U 10053A   26182.91790942 -.00000012  00000+0  00000+0 0  9995
2 37185   0.0668 268.4827 0002638 286.8118 299.9137  1.00270594 57635
INTELSAT 17 (IS-17)     
1 37238U 10065B   26183.09660039  .00000000  00000+0  00000+0 0  9996
2 37238   0.0302  85.0627 0002695  36.9337 258.8960  1.00270671 53393
INTELSAT 28 (IS-28)     
1 37392U 11016A   26183.30205955 -.00000215  00000+0  00000+0 0  9999
2 37392   1.8430  82.4486 0003959  21.5277 253.3659  1.00272363 53436
INTELSAT 18 (IS-18)     
1 37834U 11056A   26183.04795329  .00000063  00000+0  00000+0 0  9994
2 37834   0.0153 323.3049 0002051 141.8735  12.1717  1.00271269 53967
INTELSAT 22 (IS-22)     
1 38098U 12011A   26183.09781374 -.00000048  00000+0  00000+0 0  9993
2 38098   0.0152  40.4895 0001701  55.3776 291.5785  1.00271292  7334
INTELSAT 19 (IS-19)     
1 38356U 12030A   26183.15183949 -.00000046  00000+0  00000+0 0  9990
2 38356   0.0180   8.2294 0003400 102.3653  30.2620  1.00271566 50600
INTELSAT 20 (IS-20)     
1 38740U 12043A   26182.24061653 -.00000014  00000+0  00000+0 0  9992
2 38740   0.0058  49.1526 0001542 129.2534 256.0073  1.00274019 50880
INTELSAT 21 (IS-21)     
1 38749U 12045A   26183.21467519 -.00000274  00000+0  00000+0 0  9990
2 38749   0.0296 279.7688 0001920 192.8183 186.9565  1.00272937 50670
